0 TYVAK 53B
1 42795U 17036AG  22187.61584817  .00014561  00000-0  39719-3 0  9993
2 42795  97.1793 229.7498 0006220  53.8814 306.3006 15.37524521280266
0 DSAT
1 42794U 17036AF  22187.72037373  .00001600  00000-0  13877-3 0  9991
2 42794  97.4507 192.1127 0123579  21.4960 339.1385 14.92716926274352
0 CICERO 6
1 42793U 17036AE  22188.38600361  .00004467  00000-0  16801-3 0  9990
2 42793  97.1961 229.0419 0007084 254.1004 105.9455 15.27618511280110
0 ROBUSTA 1B
1 42792U 17036AD  22187.87216709  .00008390  00000-0  28416-3 0  9995
2 42792  97.1979 230.8826 0007191 246.0820 113.9669 15.30795973280090
0 VENTA 1
1 42791U 17036AC  22187.70152119  .00006656  00000-0  23410-3 0  9992
2 42791  97.1981 230.0136 0007369 248.9170 111.1283 15.29644530280007
0 VZLUSAT 1
1 42790U 17036AB  22187.87791721  .00011815  00000-0  36025-3 0  9996
2 42790  97.2008 233.3889 0006795 232.8634 127.1989 15.34074095280220
0 SKCUBE
1 42789U 17036AA  22187.85767592  .00007749  00000-0  26696-3 0  9995
2 42789  97.1980 230.2928 0007621 246.9080 113.1358 15.30263285280048
0 SUCHAI
1 42788U 17036Z   22187.85133694  .00008484  00000-0  28506-3 0  9993
2 42788  97.1982 230.8410 0007592 244.9182 115.1272 15.31048794280155
0 NUDTSAT
1 42787U 17036Y   22187.93383293  .00012491  00000-0  37883-3 0  9994
2 42787  97.2009 233.4780 0007001 233.2056 126.8545 15.34228175280080
0 DIAMOND BLUE
1 42786U 17036X   22186.92139036  .00001577  00000-0  60930-4 0  9998
2 42786  97.1998 227.1392 0008258 264.5471  95.4827 15.27653121279837
0 DIAMOND GREEN
1 42785U 17036W   22187.83928095  .00005671  00000-0  21208-3 0  9992
2 42785  97.1983 228.0356 0008355 259.1178 100.9121 15.27685175279970
0 PEGASUS
1 42784U 17036V   22187.68194303  .00006856  00000-0  24427-3 0  9993
2 42784  97.1975 228.9931 0008212 253.7283 106.3054 15.29205691279953
0 DIAMOND RED
1 42783U 17036U   22187.84057929  .00005456  00000-0  20385-3 0  9996
2 42783  97.1980 227.9719 0008553 257.5480 102.4803 15.27728101279908
0 LEMUR 2 MCPEAKE
1 42782U 17036T   22188.11897196  .00007513  00000-0  24518-3 0  9992
2 42782  97.2013 232.4407 0007400 237.4479 122.6049 15.32031202280177
0 LEMUR 2 SAM-AMELIA
1 42781U 17036S   22187.69331518  .00007470  00000-0  26571-3 0  9997
2 42781  97.2047 231.1958 0008400 246.1692 113.8668 15.29226568280025
0 LEMUR 2 LISASAURUS
1 42780U 17036R   22188.11579376  .00011717  00000-0  39846-3 0  9998
2 42780  97.2041 230.7955 0007914 244.5071 115.5352 15.30564231280069
0 LEMUR 2 LYNSEY-SYMO
1 42779U 17036Q   22187.63519744  .00011492  00000-0  35320-3 0  9998
2 42779  97.2038 233.5672 0007301 233.0387 127.0188 15.33825351280187
0 MAX VALIER SAT
1 42778U 17036P   22188.11176568  .00005507  00000-0  20871-3 0  9999
2 42778  97.2037 228.5388 0008859 251.6067 108.4210 15.27252818279905
0 COMPASS 2
1 42777U 17036N   22187.88141375  .00011584  00000-0  36450-3 0  9991
2 42777  97.2030 232.1063 0008040 230.1489 129.9047 15.33069702280127
0 URSA MAIOR
1 42776U 17036M   22187.81995436  .00004694  00000-0  18280-3 0  9993
2 42776  97.1974 225.5896 0010258 252.9736 107.0379 15.26406280279764
0 AALTO 1
1 42775U 17036L   22187.84620146  .00004313  00000-0  17112-3 0  9999
2 42775  97.1962 224.8675 0010588 254.5312 105.4757 15.25828285279732
0 LEMUR 2 KUNGFOO
1 42774U 17036K   22187.63989876  .00008903  00000-0  29865-3 0  9990
2 42774  97.2000 229.1730 0009298 238.2323 121.8013 15.31072236279946
0 LEMUR 2 LUCYBRYCE
1 42773U 17036J   22187.86215558  .00007763  00000-0  28220-3 0  9990
2 42773  97.2043 229.2526 0010040 242.3945 117.6276 15.28487221279932
0 LEMUR 2 XUENITERENCE
1 42772U 17036H   22187.84676196  .00011176  00000-0  36323-3 0  9992
2 42772  97.1936 229.0491 0009262 236.0413 123.9950 15.32029299279991
0 LEMUR 2 SHAINAJOHL
1 42771U 17036G   22187.83698057  .00008849  00000-0  29961-3 0  9993
2 42771  97.2004 228.9270 0009788 240.4788 119.5478 15.30769850279951
0 CE-SAT 1
1 42769U 17036E   22187.92341689  .00002842  00000-0  12084-3 0  9991
2 42769  97.1963 222.3427 0012408 268.0099  91.9716 15.23749058279562
0 LITUANICASAT 2
1 42768U 17036D   22187.88089463  .00016480  00000-0  46639-3 0  9990
2 42768  97.2041 232.8258 0009211 224.1482 135.9028 15.36329023280235
0 CARTOSAT 2E
1 42767U 17036C   22188.49169969  .00002214  00000-0  10830-3 0  9991
2 42767  97.4526 248.7331 0006088 317.3293 167.1491 15.19236220279401
0 NIUSAT
1 42766U 17036B   22187.73318031  .00005236  00000-0  20227-3 0  9990
2 42766  97.2004 224.8672 0011609 255.6171 104.3779 15.26614059279743
0 UCLSAT
1 42765U 17036A   22187.68307861  .00007248  00000-0  25094-3 0  9994
2 42765  97.1957 229.7479 0007424 248.7507 111.2942 15.30126675280796
0 ZHUHAI-1 01
1 42761U 17034D   22187.85069255  .00001553  00000-0  10144-3 0  9992
2 42761  43.0165 224.5453 0008740  44.4971 125.8648 15.12103982279299
0 NUSAT-3
1 42760U 17034C   22187.82007985  .00001959  00000-0  12234-3 0  9992
2 42760  43.0142 220.6777 0007899  69.0446  99.9537 15.12777981279354
0 ZHUHAI-1 02
1 42759U 17034B   22187.61258963  .00001439  00000-0  95140-4 0  9992
2 42759  43.0169 227.0886 0008566  40.8460 100.6933 15.12016522279254
0 HXMT
1 42758U 17034A   22187.87086600  .00001379  00000-0  95357-4 0  9999
2 42758  43.0168 241.5360 0008535  33.0101 135.8896 15.10549316279115
0 LEMUR 2 SPIROVISION
1 42755U 17019E   22188.13433875  .00031451  00000-0  51665-3 0  9996
2 42755  51.6330 119.5317 0006457 128.5664 339.6347 15.52094499284427
0 LEMUR 2 ROBMOORE
1 42754U 17019D   22188.16656807  .00011911  00000-0  28156-3 0  9998
2 42754  51.6337 145.9287 0006698 120.7415 239.4231 15.42239201284180
0 LEMUR 2 JENNYBARNA
1 42753U 17019C   22188.37309733  .00032363  00000-0  52061-3 0  9999
2 42753  51.6302 117.7410 0006195 124.8352 235.3222 15.52665631284550
0 LEMUR 2 ANGELA
1 42752U 17019B   22188.17696549  .00011629  00000-0  27079-3 0  9993
2 42752  51.6337 144.5443 0007429 117.9989 242.1749 15.42716289284220
0 GAOFEN 3 DEB
1 42680U 16049E   22187.74584817  .00000619  00000-0  19801-3 0  9992
2 42680  98.4175 187.7494 0018513 164.0085 196.1693 14.42856344307868
0 GAOFEN 3 DEB
1 42679U 16049D   22187.27609914  .00000066  00000-0  31218-4 0  9997
2 42679  98.3624 201.4725 0007863  61.2834 298.9147 14.45387779311450
0 GAOFEN 3 DEB
1 42678U 16049C   22187.75314640  .00000071  00000-0  32379-4 0  9993
2 42678  98.3610 202.1174 0009711  56.3869 303.8248 14.45486242305598
0 YAOGAN 30 DEB
1 42677U 16029C   22187.58082530  .00000647  00000-0  22153-3 0  9998
2 42677  97.9618  56.6490 0257463  30.3671 331.2142 14.22186970306336
0 YAOGAN 30 DEB
1 42676U 16029B   22187.68650088  .00000953  00000-0  31287-3 0  9995
2 42676  98.1759  96.6632 0257253  55.1691 307.3396 14.23266410306446
0 YAOGAN 29 DEB
1 42673U 15069F   22188.29293059  .00000416  00000-0  54532-4 0  9997
2 42673  97.9906 199.5389 0005149  69.9116 290.2653 14.85516029357675
0 CZ-4C DEB
1 42672U 15069E   22187.78020269  .00001215  00000-0  22013-3 0  9996
2 42672  98.1560 127.2876 0153736 256.0620 102.3442 14.60852825346180
0 CZ-4C DEB
1 42671U 15069D   22187.66863366  .00001087  00000-0  21663-3 0  9992
2 42671  97.9574  85.8056 0156031 272.9801  85.3553 14.56650864345275
0 CZ-4C DEB
1 42670U 15069C   22187.85227522  .00001675  00000-0  10201-3 0  9999
2 42670  97.6839 234.0027 0092524 128.8196 232.1338 15.08293547314349
0 ERS 1 DEB
1 42669U 91050T   22188.43640771  .00002011  00000-0  61040-3 0  9993
2 42669  98.5536 148.6543 0028469 182.4997 177.6055 14.43049644279845
0 TRANSIT 18 DEB
1 42668U 68012G   22187.70008054  .00007198  00000-0  57672-2 0  9991
2 42668  89.9835 268.2717 0108087 230.3913 128.7680 13.87957579432392
0 TRANSIT 13 DEB
1 42667U 66041J   22188.54792547  .00081410  00000-0  83062-2 0  9991
2 42667  90.0995  42.9111 0017872 224.2854 135.6946 14.90125863401805
0 TRANSIT 5B-2 DEB
1 42666U 63049P   22188.18915187  .00005983  00000-0  48589-2 0  9998
2 42666  89.8917  84.7977 0102247 157.7677 330.2333 13.87444917432707
0 DELTA 1 DEB
1 42661U 75052MW  22187.71326715  .00000377  00000-0  13956-3 0  9994
2 42661  98.6860 150.0605 0003324 261.3782  98.7028 14.38106917480091
0 DELTA 1 DEB
1 42660U 75052MV  22187.26853188  .00004755  00000-0  23105-2 0  9992
2 42660  99.5007 351.4776 0273598 279.7653 205.4736 14.01092275558608
0 DELTA 1 DEB
1 42659U 75052MU  22187.39708626  .00001207  00000-0  18416-3 0  9999
2 42659  98.2516 251.0998 0001267  75.3692 342.6915 14.75735698463548
0 DELTA 1 DEB
1 42657U 75052MS  22187.47746565 -.00000013  00000-0  46983-4 0  9996
2 42657  99.7810  89.3700 0045471 350.8289   9.2013 13.54198748426022
0 DELTA 1 DEB
1 42656U 75052MR  22187.87825833  .00000077  00000-0  23756-3 0  9996
2 42656  99.7593  54.7205 0068381 156.8918 203.5307 13.33693699419628
0 DELTA 1 DEB
1 42655U 75052MQ  22187.58752435 -.00000060  00000-0 -39186-4 0  9999
2 42655  99.6502 308.1845 0574809 162.3042 199.9027 12.97396196840041
0 DELTA 1 DEB
1 42654U 75052MP  22186.03181991  .00000148  00000-0  58184-3 0  9993
2 42654  99.7458 269.2604 0276306 162.3642  12.5178 12.91554204848762
0 DELTA 1 DEB
1 42653U 75052MN  22186.39906333 -.00000032  00000-0  19755-4 0  9991
2 42653  99.7068  32.8255 0068039 215.7062 266.9321 13.30694029418598
0 DELTA 1 DEB
1 42652U 75052MM  22188.45260687  .00000077  00000-0  24218-3 0  9991
2 42652  99.7029  31.9156 0072176 199.3848 278.3128 13.32278728419342
0 DELTA 1 DEB
1 42651U 75052ML  22188.54455368  .00001544  00000-0  26043-2 0  9999
2 42651  99.2156 210.5430 0161855 190.5914 323.1462 13.42139495894454
0 DELTA 1 DEB
1 42650U 75052MK  22180.22338345  .00000385  00000-0  66005-3 0  9995
2 42650  99.6859 328.5613 0237381 329.4719 153.7798 13.40780266420511
0 DELTA 1 DEB
1 42649U 75052MJ  22182.14998856  .00000047  00000-0  16891-3 0  9998
2 42649  99.9409  72.1418 0036136 139.0494 221.3357 13.38671901425327
